OBJECT_NAME,OBJECT_ID,EPOCH,MEAN_MOTION,ECCENTRICITY,INCLINATION,RA_OF_ASC_NODE,ARG_OF_PERICENTER,MEAN_ANOMALY,EPHEMERIS_TYPE,CLASSIFICATION_TYPE,NORAD_CAT_ID,ELEMENT_SET_NO,REV_AT_EPOCH,BSTAR,MEAN_MOTION_DOT,MEAN_MOTION_DDOT
STARLINK-32221,2024-136P,2026-06-09T07:34:41.389248,15.30187125,.00013031,53.1613,10.0197,79.3314,280.7834,0,U,60342,999,10369,.85677705E-4,.2178E-4,0
STARLINK-32083,2024-136Q,2026-06-09T07:36:12.459168,15.30190238,.00011319,53.1604,9.9916,84.6614,275.4516,0,U,60343,999,10369,-.38000173E-4,-.1484E-4,0
STARLINK-32077,2024-136R,2026-06-09T07:25:36.400512,15.30164409,.00012589,53.1625,9.9833,91.7909,268.3236,0,U,60344,999,10369,-.39247613E-4,-.152E-4,0
STARLINK-32075,2024-136S,2026-06-09T07:19:29.131392,15.30159116,.00013778,53.1609,9.9532,94.3667,265.7491,0,U,60345,999,10369,.24166347E-3,.6796E-4,0
STARLINK-32082,2024-136T,2026-06-09T07:21:02.109888,15.30177095,.00014921,53.1629,9.9588,96.6422,263.4749,0,U,60346,999,10369,.52493012E-4,.1195E-4,0
STARLINK-32084,2024-136U,2026-06-09T17:56:34.418976,15.31692922,.0001725,53.1627,7.7368,70.5344,289.5844,0,U,60347,999,10376,.83561933E-4,.2228E-4,0
STARLINK-32081,2024-136V,2026-06-09T20:44:19.372704,15.31704452,.00011374,53.1614,7.0419,67.6537,292.4585,0,U,60348,999,10378,.39711328E-4,.868E-5,0
STARLINK-32181,2024-136W,2026-06-09T07:10:27.457824,15.34378378,.00011333,53.1615,8.4988,83.5082,276.6049,0,U,60349,999,10371,-.93039333E-4,-.3516E-4,0
STARLINK-32076,2024-136X,2026-06-09T20:37:36.163776,15.31709962,.00010927,53.1598,7.0121,75.5170,284.5953,0,U,60350,999,10378,.15678748E-3,.4505E-4,0
STARLINK-32097,2024-136Y,2026-06-09T07:07:25.023360,15.34370377,.00012894,53.1610,8.4818,99.5108,260.6041,0,U,60351,999,10371,-.10914233E-4,-.745E-5,0
STRIX-4,2024-137A,2026-06-09T22:04:35.097888,15.32322778,.00186703,43.0167,326.3515,258.2961,101.5798,0,U,60352,999,10290,.62404761E-3,.19766E-3,0
STARLINK-32285,2024-138A,2026-06-09T12:44:25.003680,15.30179054,.00011872,53.1606,242.6772,80.0145,280.0990,0,U,60355,999,10469,.62252061E-4,.1484E-4,0
STARLINK-32278,2024-138B,2026-06-09T12:40:00.599808,15.30167085,.0001159,53.1601,243.3597,106.9784,253.1344,0,U,60356,999,10468,.27546792E-3,.78E-4,0
STARLINK-32287,2024-138D,2026-06-09T12:35:27.494592,15.30173878,.00010546,53.1595,243.3501,70.7109,289.4006,0,U,60358,999,10468,.36722952E-4,.728E-5,0
STARLINK-32290,2024-138E,2026-06-09T12:38:28.799808,15.30208481,.00014929,53.1572,243.3643,96.5882,263.5289,0,U,60359,999,8571,.22174645E-3,.6215E-4,0
STARLINK-32275,2024-138F,2026-06-09T12:30:01.259424,15.31728966,.00012419,53.1572,242.6123,75.9288,284.1851,0,U,60360,999,10469,.42366195E-3,.12816E-3,0
STARLINK-32227,2024-138G,2026-06-09T12:29:21.425568,15.30197380,.00013394,53.1587,243.3073,63.9926,296.1212,0,U,60361,999,10469,.60685312E-4,.1438E-4,0
STARLINK-32256,2024-138H,2026-06-09T12:36:57.960576,15.30191100,.00013249,53.1592,243.3466,112.3668,247.7473,0,U,60362,999,10467,.85317134E-4,.2168E-4,0
STARLINK-32267,2024-138J,2026-06-09T12:21:45.454752,15.30197777,.00015054,53.1607,243.2914,111.0317,249.0845,0,U,60363,999,10468,.12042302E-3,.3209E-4,0
STARLINK-32270,2024-138K,2026-06-09T12:03:44.951904,15.31710241,.00016488,53.1611,243.2084,81.3526,278.7663,0,U,60364,999,10458,-.19649103E-4,-.975E-5,0
STARLINK-32188,2024-138L,2026-06-09T13:04:06.388896,15.31703812,.00017338,53.1588,242.7656,69.3611,290.7577,0,U,60365,999,10469,.12493239E-3,.3514E-4,0
STARLINK-32230,2024-138M,2026-06-09T12:18:43.827264,15.30197368,.00012592,53.1591,243.2709,50.6175,309.4937,0,U,60366,999,10468,-.3198837E-5,-.454E-5,0
STARLINK-32243,2024-138N,2026-06-09T11:50:18.195360,15.31695901,.00016037,53.1597,243.1507,72.5345,287.5832,0,U,60367,999,10468,.11863941E-3,.3317E-4,0
STARLINK-32271,2024-138P,2026-06-09T12:32:24.278208,15.30200271,.00013939,53.1607,243.3395,104.7337,255.3818,0,U,60368,999,10468,.13288247E-3,.3578E-4,0
STARLINK-32220,2024-138R,2026-06-09T10:38:35.350944,15.30197860,.00016494,53.1602,243.5479,71.4960,288.6220,0,U,60370,999,10467,.15788348E-3,.4319E-4,0
STARLINK-32263,2024-138S,2026-06-09T12:48:57.431520,15.30196501,.0001388,53.1615,242.6977,86.7273,273.3887,0,U,60371,999,10459,.26649317E-4,.43E-5,0
STARLINK-32268,2024-138T,2026-06-09T12:33:55.177056,15.30206057,.00007338,53.1578,243.3414,86.8340,273.2745,0,U,60372,999,10468,.70095548E-4,.1718E-4,0
STARLINK-32223,2024-138U,2026-06-09T11:43:33.521952,15.31710305,.0001381,53.1608,243.1264,67.8182,292.2966,0,U,60373,999,10458,.14230565E-3,.4055E-4,0
STARLINK-32180,2024-138V,2026-06-09T22:00:01.999584,15.31668132,.00011733,53.1588,240.9742,95.3792,183.9701,0,U,60374,999,587,-.22025684E-3,-.7186E-4,0
STARLINK-32281,2024-138W,2026-06-09T13:02:38.130432,15.30187655,.00012877,53.1594,242.7560,51.3726,308.7390,0,U,60375,999,10459,.65222678E-4,.1572E-4,0
