STARLINK-32221          
1 60342U 24136P   26160.31575682  .00002178  00000+0  85678-4 0  9998
2 60342  53.1613  10.0197 0001303  79.3314 280.7834 15.30187125103692
STARLINK-32083          
1 60343U 24136Q   26160.31681087 -.00001484  00000+0 -38000-4 0  9994
2 60343  53.1604   9.9916 0001131  84.6614 275.4516 15.30190238103697
STARLINK-32077          
1 60344U 24136R   26160.30944908 -.00001520  00000+0 -39248-4 0  9994
2 60344  53.1625   9.9833 0001258  91.7909 268.3236 15.30164409103696
STARLINK-32075          
1 60345U 24136S   26160.30519828  .00006796  00000+0  24166-3 0  9994
2 60345  53.1609   9.9532 0001377  94.3667 265.7491 15.30159116103690
STARLINK-32082          
1 60346U 24136T   26160.30627442  .00001195  00000+0  52493-4 0  9990
2 60346  53.1629   9.9588 0001492  96.6422 263.4749 15.30177095103693
STARLINK-32084          
1 60347U 24136U   26160.74762059  .00002228  00000+0  83562-4 0  9992
2 60347  53.1627   7.7368 0001725  70.5344 289.5844 15.31692922103762
STARLINK-32081          
1 60348U 24136V   26160.86411311  .00000868  00000+0  39711-4 0  9993
2 60348  53.1614   7.0419 0001137  67.6537 292.4585 15.31704452103786
STARLINK-32181          
1 60349U 24136W   26160.29892891 -.00003516  00000+0 -93039-4 0  9995
2 60349  53.1615   8.4988 0001133  83.5082 276.6049 15.34378378103711
STARLINK-32076          
1 60350U 24136X   26160.85944634  .00004505  00000+0  15679-3 0  9992
2 60350  53.1598   7.0121 0001092  75.5170 284.5953 15.31709962103783
STARLINK-32097          
1 60351U 24136Y   26160.29681740 -.00000745  00000+0 -10914-4 0  9999
2 60351  53.1610   8.4818 0001289  99.5108 260.6041 15.34370377103715
STRIX-4                 
1 60352U 24137A   26160.91985067  .00019766  00000+0  62405-3 0  9991
2 60352  43.0167 326.3515 0018670 258.2961 101.5798 15.32322778102902
STARLINK-32285          
1 60355U 24138A   26160.53084495  .00001484  00000+0  62252-4 0  9997
2 60355  53.1606 242.6772 0001187  80.0145 280.0990 15.30179054104690
STARLINK-32278          
1 60356U 24138B   26160.52778472  .00007800  00000+0  27547-3 0  9997
2 60356  53.1601 243.3597 0001159 106.9784 253.1344 15.30167085104689
STARLINK-32287          
1 60358U 24138D   26160.52462378  .00000728  00000+0  36723-4 0  9993
2 60358  53.1595 243.3501 0001054  70.7109 289.4006 15.30173878104685
STARLINK-32290          
1 60359U 24138E   26160.52672222  .00006215  00000+0  22175-3 0  9997
2 60359  53.1572 243.3643 0001492  96.5882 263.5289 15.30208481 85715
STARLINK-32275          
1 60360U 24138F   26160.52084791  .00012816  00000+0  42366-3 0  9995
2 60360  53.1572 242.6123 0001241  75.9288 284.1851 15.31728966104694
STARLINK-32227          
1 60361U 24138G   26160.52038687  .00001438  00000+0  60685-4 0  9992
2 60361  53.1587 243.3073 0001339  63.9926 296.1212 15.30197380104690
STARLINK-32256          
1 60362U 24138H   26160.52567084  .00002168  00000+0  85317-4 0  9991
2 60362  53.1592 243.3466 0001324 112.3668 247.7473 15.30191100104672
STARLINK-32267          
1 60363U 24138J   26160.51510943  .00003209  00000+0  12042-3 0  9994
2 60363  53.1607 243.2914 0001505 111.0317 249.0845 15.30197777104680
STARLINK-32270          
1 60364U 24138K   26160.50260361 -.00000975  00000+0 -19649-4 0  9990
2 60364  53.1611 243.2084 0001648  81.3526 278.7663 15.31710241104587
STARLINK-32188          
1 60365U 24138L   26160.54451839  .00003514  00000+0  12493-3 0  9996
2 60365  53.1588 242.7656 0001733  69.3611 290.7577 15.31703812104692
STARLINK-32230          
1 60366U 24138M   26160.51300726 -.00000454  00000+0 -31988-5 0  9996
2 60366  53.1591 243.2709 0001259  50.6175 309.4937 15.30197368104682
STARLINK-32243          
1 60367U 24138N   26160.49326615  .00003317  00000+0  11864-3 0  9997
2 60367  53.1597 243.1507 0001603  72.5345 287.5832 15.31695901104686
STARLINK-32271          
1 60368U 24138P   26160.52250322  .00003578  00000+0  13288-3 0  9994
2 60368  53.1607 243.3395 0001393 104.7337 255.3818 15.30200271104689
STARLINK-32220          
1 60370U 24138R   26160.44346471  .00004319  00000+0  15788-3 0  9990
2 60370  53.1602 243.5479 0001649  71.4960 288.6220 15.30197860104672
STARLINK-32263          
1 60371U 24138S   26160.53399805  .00000430  00000+0  26649-4 0  9999
2 60371  53.1615 242.6977 0001388  86.7273 273.3887 15.30196501104598
STARLINK-32268          
1 60372U 24138T   26160.52355529  .00001718  00000+0  70096-4 0  9999
2 60372  53.1578 243.3414 0000733  86.8340 273.2745 15.30206057104680
STARLINK-32223          
1 60373U 24138U   26160.48858243  .00004055  00000+0  14231-3 0  9991
2 60373  53.1608 243.1264 0001381  67.8182 292.2966 15.31710305104581
STARLINK-32180          
1 60374U 24138V   26160.91668981 -.00007186  00000+0 -22026-3 0  9999
2 60374  53.1588 240.9742 0001173  95.3792 183.9701 15.31668132  5872
STARLINK-32281          
1 60375U 24138W   26160.54349688  .00001572  00000+0  65223-4 0  9997
2 60375  53.1594 242.7560 0001287  51.3726 308.7390 15.30187655104598
